{
  "norad_id": 68667,
  "name": "STARLINK-36295",
  "history": [
    {
      "epoch": "2026-04-22T13:07:34.326912Z",
      "apogee_km": 345.5878995726407,
      "perigee_km": 342.4620942440779,
      "latitude_deg": 4.0924590430992885e-05,
      "longitude_deg": -63.90658229629733,
      "height_km": 346.02127194431887,
      "semi_major_axis_km": 6722.161996908359,
      "eccentricity": 0.0002325,
      "inclination_deg": 97.2837,
      "raan_deg": 343.5934,
      "arg_perigee_deg": 41.5656,
      "mean_anomaly_deg": 318.5786,
      "mean_motion_rev_day": 15.75213048
    }
  ]
}